KUIPER-00044            
1 64505U 25134F   25209.58335648 -.00037026  00000+0 -18536-2 0  9999
2 64505  51.8720 162.8355 0011163 242.5298 136.2007 15.16747858  6141
KUIPER-00046            
1 64506U 25134G   25209.91668981  .00006155  00000+0  24722-3 0  9998
2 64506  51.8721 160.5501 0007924 252.8996 143.2619 15.26241484  6221
KUIPER-00047            
1 64507U 25134H   25209.56598849  .00019611  00000+0  59074-3 0  9994
2 64507  51.8620 162.0101 0009654 252.5230 107.4700 15.34296709  6630
KUIPER-00048            
1 64508U 25134J   25209.58607054  .00022987  00000+0  64740-3 0  9992
2 64508  51.8774 161.4423 0002631 229.0946 130.9812 15.36346379  6649
KUIPER-00049            
1 64509U 25134K   25209.86751889  .00028903  00000+0  83323-3 0  9992
2 64509  51.8713 160.3141 0006982 233.2944 126.7400 15.35467554  6662
KUIPER-00050            
1 64510U 25134L   25209.41574251  .00024309  00000+0  71214-3 0  9993
2 64510  51.8719 162.5357 0007515 225.4773 134.5599 15.35056926  6617
KUIPER-00051            
1 64511U 25134M   25209.60079400  .00025278  00000+0  72798-3 0  9995
2 64511  51.8728 161.5319 0004982 224.2334 135.8254 15.35584770  6648
KUIPER-00052            
1 64512U 25134N   25209.91668981  .00008850  00000+0  22689-3 0  9999
2 64512  51.8751 159.5625 0002863 246.3536 282.5346 15.40145463  6232
