<?xml version="1.0" encoding="UTF-8"?>
<ndm xmlns:xsi="http://www.w3.org/2001/XMLSchema-instance" xsi:noNamespaceSchemaLocation="https://sanaregistry.org/r/ndmxml_unqualified/ndmxml-2.0.0-master-2.0.xsd">
<omm id="CCSDS_OMM_VERS" version="2.0">
<header><CREATION_DATE/><ORIGINATOR/></header><body><segment><metadata><OBJECT_NAME>KUIPER-00044</OBJECT_NAME><OBJECT_ID>2025-134F</OBJECT_ID><CENTER_NAME>EARTH</CENTER_NAME><REF_FRAME>TEME</REF_FRAME><TIME_SYSTEM>UTC</TIME_SYSTEM><MEAN_ELEMENT_THEORY>SGP4</MEAN_ELEMENT_THEORY></metadata><data><meanElements><EPOCH>2025-07-28T14:00:01.999872</EPOCH><MEAN_MOTION>15.16747858</MEAN_MOTION><ECCENTRICITY>.0011163</ECCENTRICITY><INCLINATION>51.8720</INCLINATION><RA_OF_ASC_NODE>162.8355</RA_OF_ASC_NODE><ARG_OF_PERICENTER>242.5298</ARG_OF_PERICENTER><MEAN_ANOMALY>136.2007</MEAN_ANOMALY></meanElements><tleParameters><EPHEMERIS_TYPE>0</EPHEMERIS_TYPE><CLASSIFICATION_TYPE>U</CLASSIFICATION_TYPE><NORAD_CAT_ID>64505</NORAD_CAT_ID><ELEMENT_SET_NO>999</ELEMENT_SET_NO><REV_AT_EPOCH>614</REV_AT_EPOCH><BSTAR>-.18536E-2</BSTAR><MEAN_MOTION_DOT>-.37026E-3</MEAN_MOTION_DOT><MEAN_MOTION_DDOT>0</MEAN_MOTION_DDOT></tleParameters></data></segment></body></omm>
<omm id="CCSDS_OMM_VERS" version="2.0">
<header><CREATION_DATE/><ORIGINATOR/></header><body><segment><metadata><OBJECT_NAME>KUIPER-00046</OBJECT_NAME><OBJECT_ID>2025-134G</OBJECT_ID><CENTER_NAME>EARTH</CENTER_NAME><REF_FRAME>TEME</REF_FRAME><TIME_SYSTEM>UTC</TIME_SYSTEM><MEAN_ELEMENT_THEORY>SGP4</MEAN_ELEMENT_THEORY></metadata><data><meanElements><EPOCH>2025-07-28T22:00:01.999584</EPOCH><MEAN_MOTION>15.26241484</MEAN_MOTION><ECCENTRICITY>.0007924</ECCENTRICITY><INCLINATION>51.8721</INCLINATION><RA_OF_ASC_NODE>160.5501</RA_OF_ASC_NODE><ARG_OF_PERICENTER>252.8996</ARG_OF_PERICENTER><MEAN_ANOMALY>143.2619</MEAN_ANOMALY></meanElements><tleParameters><EPHEMERIS_TYPE>0</EPHEMERIS_TYPE><CLASSIFICATION_TYPE>U</CLASSIFICATION_TYPE><NORAD_CAT_ID>64506</NORAD_CAT_ID><ELEMENT_SET_NO>999</ELEMENT_SET_NO><REV_AT_EPOCH>622</REV_AT_EPOCH><BSTAR>.24722E-3</BSTAR><MEAN_MOTION_DOT>.6155E-4</MEAN_MOTION_DOT><MEAN_MOTION_DDOT>0</MEAN_MOTION_DDOT></tleParameters></data></segment></body></omm>
<omm id="CCSDS_OMM_VERS" version="2.0">
<header><CREATION_DATE/><ORIGINATOR/></header><body><segment><metadata><OBJECT_NAME>KUIPER-00047</OBJECT_NAME><OBJECT_ID>2025-134H</OBJECT_ID><CENTER_NAME>EARTH</CENTER_NAME><REF_FRAME>TEME</REF_FRAME><TIME_SYSTEM>UTC</TIME_SYSTEM><MEAN_ELEMENT_THEORY>SGP4</MEAN_ELEMENT_THEORY></metadata><data><meanElements><EPOCH>2025-07-28T13:35:01.405536</EPOCH><MEAN_MOTION>15.34296709</MEAN_MOTION><ECCENTRICITY>.0009654</ECCENTRICITY><INCLINATION>51.8620</INCLINATION><RA_OF_ASC_NODE>162.0101</RA_OF_ASC_NODE><ARG_OF_PERICENTER>252.5230</ARG_OF_PERICENTER><MEAN_ANOMALY>107.4700</MEAN_ANOMALY></meanElements><tleParameters><EPHEMERIS_TYPE>0</EPHEMERIS_TYPE><CLASSIFICATION_TYPE>U</CLASSIFICATION_TYPE><NORAD_CAT_ID>64507</NORAD_CAT_ID><ELEMENT_SET_NO>999</ELEMENT_SET_NO><REV_AT_EPOCH>663</REV_AT_EPOCH><BSTAR>.59074E-3</BSTAR><MEAN_MOTION_DOT>.19611E-3</MEAN_MOTION_DOT><MEAN_MOTION_DDOT>0</MEAN_MOTION_DDOT></tleParameters></data></segment></body></omm>
<omm id="CCSDS_OMM_VERS" version="2.0">
<header><CREATION_DATE/><ORIGINATOR/></header><body><segment><metadata><OBJECT_NAME>KUIPER-00048</OBJECT_NAME><OBJECT_ID>2025-134J</OBJECT_ID><CENTER_NAME>EARTH</CENTER_NAME><REF_FRAME>TEME</REF_FRAME><TIME_SYSTEM>UTC</TIME_SYSTEM><MEAN_ELEMENT_THEORY>SGP4</MEAN_ELEMENT_THEORY></metadata><data><meanElements><EPOCH>2025-07-28T14:03:56.494656</EPOCH><MEAN_MOTION>15.36346379</MEAN_MOTION><ECCENTRICITY>.0002631</ECCENTRICITY><INCLINATION>51.8774</INCLINATION><RA_OF_ASC_NODE>161.4423</RA_OF_ASC_NODE><ARG_OF_PERICENTER>229.0946</ARG_OF_PERICENTER><MEAN_ANOMALY>130.9812</MEAN_ANOMALY></meanElements><tleParameters><EPHEMERIS_TYPE>0</EPHEMERIS_TYPE><CLASSIFICATION_TYPE>U</CLASSIFICATION_TYPE><NORAD_CAT_ID>64508</NORAD_CAT_ID><ELEMENT_SET_NO>999</ELEMENT_SET_NO><REV_AT_EPOCH>664</REV_AT_EPOCH><BSTAR>.6474E-3</BSTAR><MEAN_MOTION_DOT>.22987E-3</MEAN_MOTION_DOT><MEAN_MOTION_DDOT>0</MEAN_MOTION_DDOT></tleParameters></data></segment></body></omm>
<omm id="CCSDS_OMM_VERS" version="2.0">
<header><CREATION_DATE/><ORIGINATOR/></header><body><segment><metadata><OBJECT_NAME>KUIPER-00049</OBJECT_NAME><OBJECT_ID>2025-134K</OBJECT_ID><CENTER_NAME>EARTH</CENTER_NAME><REF_FRAME>TEME</REF_FRAME><TIME_SYSTEM>UTC</TIME_SYSTEM><MEAN_ELEMENT_THEORY>SGP4</MEAN_ELEMENT_THEORY></metadata><data><meanElements><EPOCH>2025-07-28T20:49:13.632096</EPOCH><MEAN_MOTION>15.35467554</MEAN_MOTION><ECCENTRICITY>.0006982</ECCENTRICITY><INCLINATION>51.8713</INCLINATION><RA_OF_ASC_NODE>160.3141</RA_OF_ASC_NODE><ARG_OF_PERICENTER>233.2944</ARG_OF_PERICENTER><MEAN_ANOMALY>126.7400</MEAN_ANOMALY></meanElements><tleParameters><EPHEMERIS_TYPE>0</EPHEMERIS_TYPE><CLASSIFICATION_TYPE>U</CLASSIFICATION_TYPE><NORAD_CAT_ID>64509</NORAD_CAT_ID><ELEMENT_SET_NO>999</ELEMENT_SET_NO><REV_AT_EPOCH>666</REV_AT_EPOCH><BSTAR>.83323E-3</BSTAR><MEAN_MOTION_DOT>.28903E-3</MEAN_MOTION_DOT><MEAN_MOTION_DDOT>0</MEAN_MOTION_DDOT></tleParameters></data></segment></body></omm>
<omm id="CCSDS_OMM_VERS" version="2.0">
<header><CREATION_DATE/><ORIGINATOR/></header><body><segment><metadata><OBJECT_NAME>KUIPER-00050</OBJECT_NAME><OBJECT_ID>2025-134L</OBJECT_ID><CENTER_NAME>EARTH</CENTER_NAME><REF_FRAME>TEME</REF_FRAME><TIME_SYSTEM>UTC</TIME_SYSTEM><MEAN_ELEMENT_THEORY>SGP4</MEAN_ELEMENT_THEORY></metadata><data><meanElements><EPOCH>2025-07-28T09:58:40.152864</EPOCH><MEAN_MOTION>15.35056926</MEAN_MOTION><ECCENTRICITY>.0007515</ECCENTRICITY><INCLINATION>51.8719</INCLINATION><RA_OF_ASC_NODE>162.5357</RA_OF_ASC_NODE><ARG_OF_PERICENTER>225.4773</ARG_OF_PERICENTER><MEAN_ANOMALY>134.5599</MEAN_ANOMALY></meanElements><tleParameters><EPHEMERIS_TYPE>0</EPHEMERIS_TYPE><CLASSIFICATION_TYPE>U</CLASSIFICATION_TYPE><NORAD_CAT_ID>64510</NORAD_CAT_ID><ELEMENT_SET_NO>999</ELEMENT_SET_NO><REV_AT_EPOCH>661</REV_AT_EPOCH><BSTAR>.71214E-3</BSTAR><MEAN_MOTION_DOT>.24309E-3</MEAN_MOTION_DOT><MEAN_MOTION_DDOT>0</MEAN_MOTION_DDOT></tleParameters></data></segment></body></omm>
<omm id="CCSDS_OMM_VERS" version="2.0">
<header><CREATION_DATE/><ORIGINATOR/></header><body><segment><metadata><OBJECT_NAME>KUIPER-00051</OBJECT_NAME><OBJECT_ID>2025-134M</OBJECT_ID><CENTER_NAME>EARTH</CENTER_NAME><REF_FRAME>TEME</REF_FRAME><TIME_SYSTEM>UTC</TIME_SYSTEM><MEAN_ELEMENT_THEORY>SGP4</MEAN_ELEMENT_THEORY></metadata><data><meanElements><EPOCH>2025-07-28T14:25:08.601600</EPOCH><MEAN_MOTION>15.35584770</MEAN_MOTION><ECCENTRICITY>.0004982</ECCENTRICITY><INCLINATION>51.8728</INCLINATION><RA_OF_ASC_NODE>161.5319</RA_OF_ASC_NODE><ARG_OF_PERICENTER>224.2334</ARG_OF_PERICENTER><MEAN_ANOMALY>135.8254</MEAN_ANOMALY></meanElements><tleParameters><EPHEMERIS_TYPE>0</EPHEMERIS_TYPE><CLASSIFICATION_TYPE>U</CLASSIFICATION_TYPE><NORAD_CAT_ID>64511</NORAD_CAT_ID><ELEMENT_SET_NO>999</ELEMENT_SET_NO><REV_AT_EPOCH>664</REV_AT_EPOCH><BSTAR>.72798E-3</BSTAR><MEAN_MOTION_DOT>.25278E-3</MEAN_MOTION_DOT><MEAN_MOTION_DDOT>0</MEAN_MOTION_DDOT></tleParameters></data></segment></body></omm>
<omm id="CCSDS_OMM_VERS" version="2.0">
<header><CREATION_DATE/><ORIGINATOR/></header><body><segment><metadata><OBJECT_NAME>KUIPER-00052</OBJECT_NAME><OBJECT_ID>2025-134N</OBJECT_ID><CENTER_NAME>EARTH</CENTER_NAME><REF_FRAME>TEME</REF_FRAME><TIME_SYSTEM>UTC</TIME_SYSTEM><MEAN_ELEMENT_THEORY>SGP4</MEAN_ELEMENT_THEORY></metadata><data><meanElements><EPOCH>2025-07-28T22:00:01.999584</EPOCH><MEAN_MOTION>15.40145463</MEAN_MOTION><ECCENTRICITY>.0002863</ECCENTRICITY><INCLINATION>51.8751</INCLINATION><RA_OF_ASC_NODE>159.5625</RA_OF_ASC_NODE><ARG_OF_PERICENTER>246.3536</ARG_OF_PERICENTER><MEAN_ANOMALY>282.5346</MEAN_ANOMALY></meanElements><tleParameters><EPHEMERIS_TYPE>0</EPHEMERIS_TYPE><CLASSIFICATION_TYPE>U</CLASSIFICATION_TYPE><NORAD_CAT_ID>64512</NORAD_CAT_ID><ELEMENT_SET_NO>999</ELEMENT_SET_NO><REV_AT_EPOCH>623</REV_AT_EPOCH><BSTAR>.22689E-3</BSTAR><MEAN_MOTION_DOT>.885E-4</MEAN_MOTION_DOT><MEAN_MOTION_DDOT>0</MEAN_MOTION_DDOT></tleParameters></data></segment></body></omm>

</ndm>
